{
    "links": {
        "self": "http://www.neowsapp.com/rest/v1/neo/54054541?api_key=iIulBulltgU6a56xZRHN4H3l9WmuAYTsLGpBGhQ2"
    },
    "id": "54054541",
    "neo_reference_id": "54054541",
    "name": "(2020 SV2)",
    "designation": "2020 SV2",
    "nasa_jpl_url": "http://ssd.jpl.nasa.gov/sbdb.cgi?sstr=54054541",
    "absolute_magnitude_h": 25.624,
    "estimated_diameter": {
        "kilometers": {
            "estimated_diameter_min": 0.0199413693,
            "estimated_diameter_max": 0.0445902573
        },
        "meters": {
            "estimated_diameter_min": 19.9413693098,
            "estimated_diameter_max": 44.5902573411
        },
        "miles": {
            "estimated_diameter_min": 0.0123909886,
            "estimated_diameter_max": 0.0277070928
        },
        "feet": {
            "estimated_diameter_min": 65.4244420863,
            "estimated_diameter_max": 146.293499895
        }
    },
    "is_potentially_hazardous_asteroid": false,
    "close_approach_data": [
        {
            "close_approach_date": "2020-09-19",
            "close_approach_date_full": "2020-Sep-19 03:42",
            "epoch_date_close_approach": 1600486920000,
            "relative_velocity": {
                "kilometers_per_second": "7.7835472538",
                "kilometers_per_hour": "28020.7701135532",
                "miles_per_hour": "17411.0168519464"
            },
            "miss_distance": {
                "astronomical": "0.081207253",
                "lunar": "31.589621417",
                "kilometers": "12148432.07735111",
                "miles": "7548685.655660918"
            },
            "orbiting_body": "Earth"
        }
    ],
    "orbital_data": {
        "orbit_id": "2",
        "orbit_determination_date": "2020-09-25 06:32:17",
        "first_observation_date": "2020-09-15",
        "last_observation_date": "2020-09-25",
        "data_arc_in_days": 10,
        "observations_used": 20,
        "orbit_uncertainty": "8",
        "minimum_orbit_intersection": ".0751847",
        "jupiter_tisserand_invariant": "3.630",
        "epoch_osculation": "2459113.5",
        "eccentricity": ".4734337365466234",
        "semi_major_axis": "2.046455454244899",
        "inclination": "10.0975432089617",
        "ascending_node_longitude": "358.7409916625066",
        "orbital_period": "1069.305671741517",
        "perihelion_distance": "1.077594401865519",
        "perihelion_argument": "5.632403973176488",
        "aphelion_distance": "3.01531650662428",
        "perihelion_time": "2459117.558258975803",
        "mean_anomaly": "358.6337178695502",
        "mean_motion": ".3366670630425898",
        "equinox": "J2000",
        "orbit_class": {
            "orbit_class_type": "AMO",
            "orbit_class_description": "Near-Earth asteroid orbits similar to that of 1221 Amor",
            "orbit_class_range": "1.017 AU < q (perihelion) < 1.3 AU"
        }
    },
    "is_sentry_object": false
}